{
  "type": "FeatureCollection",
  "features": [
    {
      "type": "Feature",
      "properties": {
        "norad_id": 34340,
        "name": "COSMOS 2251 DEB",
        "group": "cosmos-2251-debris",
        "lat": -8.75911569816729,
        "lon": 125.6272220221477,
        "alt_km": 1122.7247503989965,
        "timestamp": "2025-12-15T15:53:20.242341+00:00",
        "meta_object_name": "COSMOS 2251 DEB",
        "meta_object_id": "1993-036PN",
        "meta_epoch": "2025-12-14T21:43:47.842176",
        "meta_mean_motion": 13.79580293,
        "meta_eccentricity": 0.02828984,
        "meta_inclination": 74.079,
        "meta_ra_of_asc_node": 304.3699,
        "meta_arg_of_pericenter": 51.6342,
        "meta_mean_anomaly": 338.8619,
        "meta_ephemeris_type": 0,
        "meta_classification_type": "U",
        "meta_norad_cat_id": 34340,
        "meta_element_set_no": 999,
        "meta_rev_at_epoch": 84298,
        "meta_bstar": 0.0014131075,
        "meta_mean_motion_dot": 1.946e-05,
        "meta_mean_motion_ddot": 0,
        "tle_line1": "1 34340U 93036PN  25348.90541484  .00001946  00000+0  14131-2 0  9993",
        "tle_line2": "2 34340  74.0790 304.3699 0282898  51.6342 338.8619 13.79580293842981"
      },
      "geometry": {
        "type": "Point",
        "coordinates": [
          125.6272220221477,
          -8.75911569816729
        ]
      }
    },
    {
      "type": "Feature",
      "properties": {
        "norad_id": 34343,
        "name": "COSMOS 2251 DEB",
        "group": "cosmos-2251-debris",
        "lat": 51.91689388986127,
        "lon": -117.56257123015833,
        "alt_km": 667.5490611764453,
        "timestamp": "2025-12-15T15:53:20.242350+00:00",
        "meta_object_name": "COSMOS 2251 DEB",
        "meta_object_id": "1993-036PR",
        "meta_epoch": "2025-12-14T17:09:29.476800",
        "meta_mean_motion": 14.69483569,
        "meta_eccentricity": 0.00235937,
        "meta_inclination": 74.0198,
        "meta_ra_of_asc_node": 85.7232,
        "meta_arg_of_pericenter": 359.7278,
        "meta_mean_anomaly": 156.7094,
        "meta_ephemeris_type": 0,
        "meta_classification_type": "U",
        "meta_norad_cat_id": 34343,
        "meta_element_set_no": 999,
        "meta_rev_at_epoch": 88759,
        "meta_bstar": 0.0012075968,
        "meta_mean_motion_dot": 7.164e-05,
        "meta_mean_motion_ddot": 0,
        "tle_line1": "1 34343U 93036PR  25348.71492450  .00007164  00000+0  12076-2 0  9997",
        "tle_line2": "2 34343  74.0198  85.7232 0023593 359.7278 156.7094 14.69483569887592"
      },
      "geometry": {
        "type": "Point",
        "coordinates": [
          -117.56257123015833,
          51.91689388986127
        ]
      }
    },
    {
      "type": "Feature",
      "properties": {
        "norad_id": 34344,
        "name": "COSMOS 2251 DEB",
        "group": "cosmos-2251-debris",
        "lat": 28.637607081402784,
        "lon": 114.15828823275231,
        "alt_km": 856.1690282165182,
        "timestamp": "2025-12-15T15:53:20.242359+00:00",
        "meta_object_name": "COSMOS 2251 DEB",
        "meta_object_id": "1993-036PS",
        "meta_epoch": "2025-12-14T18:25:58.870272",
        "meta_mean_motion": 14.16427014,
        "meta_eccentricity": 0.01559979,
        "meta_inclination": 73.9772,
        "meta_ra_of_asc_node": 106.7256,
        "meta_arg_of_pericenter": 290.4627,
        "meta_mean_anomaly": 220.9527,
        "meta_ephemeris_type": 0,
        "meta_classification_type": "U",
        "meta_norad_cat_id": 34344,
        "meta_element_set_no": 999,
        "meta_rev_at_epoch": 86125,
        "meta_bstar": 0.0017584503,
        "meta_mean_motion_dot": 3.912e-05,
        "meta_mean_motion_ddot": 0,
        "tle_line1": "1 34344U 93036PS  25348.76804248  .00003912  00000+0  17585-2 0  9992",
        "tle_line2": "2 34344  73.9772 106.7256 0155997 290.4627 220.9527 14.16427014861257"
      },
      "geometry": {
        "type": "Point",
        "coordinates": [
          114.15828823275231,
          28.637607081402784
        ]
      }
    },
    {
      "type": "Feature",
      "properties": {
        "norad_id": 34346,
        "name": "COSMOS 2251 DEB",
        "group": "cosmos-2251-debris",
        "lat": -34.47234736393029,
        "lon": -64.18927183522872,
        "alt_km": 1042.4823108630844,
        "timestamp": "2025-12-15T15:53:20.242368+00:00",
        "meta_object_name": "COSMOS 2251 DEB",
        "meta_object_id": "1993-036PU",
        "meta_epoch": "2025-12-14T21:20:41.574048",
        "meta_mean_motion": 13.9969951,
        "meta_eccentricity": 0.02061843,
        "meta_inclination": 73.9947,
        "meta_ra_of_asc_node": 308.5162,
        "meta_arg_of_pericenter": 126.9228,
        "meta_mean_anomaly": 265.9491,
        "meta_ephemeris_type": 0,
        "meta_classification_type": "U",
        "meta_norad_cat_id": 34346,
        "meta_element_set_no": 999,
        "meta_rev_at_epoch": 85440,
        "meta_bstar": 0.00079489534,
        "meta_mean_motion_dot": 1.374e-05,
        "meta_mean_motion_ddot": 0,
        "tle_line1": "1 34346U 93036PU  25348.88937007  .00001374  00000+0  79490-3 0  9991",
        "tle_line2": "2 34346  73.9947 308.5162 0206184 126.9228 265.9491 13.99699510854406"
      },
      "geometry": {
        "type": "Point",
        "coordinates": [
          -64.18927183522872,
          -34.47234736393029
        ]
      }
    },
    {
      "type": "Feature",
      "properties": {
        "norad_id": 34383,
        "name": "COSMOS 2251 DEB",
        "group": "cosmos-2251-debris",
        "lat": -50.07706790721337,
        "lon": 131.69663911766798,
        "alt_km": 546.848872845153,
        "timestamp": "2025-12-15T15:53:20.242377+00:00",
        "meta_object_name": "COSMOS 2251 DEB",
        "meta_object_id": "1993-036PY",
        "meta_epoch": "2025-12-14T21:36:26.671680",
        "meta_mean_motion": 15.09216581,
        "meta_eccentricity": 0.0002646,
        "meta_inclination": 74.0219,
        "meta_ra_of_asc_node": 293.2441,
        "meta_arg_of_pericenter": 45.2014,
        "meta_mean_anomaly": 10.7439,
        "meta_ephemeris_type": 0,
        "meta_classification_type": "U",
        "meta_norad_cat_id": 34383,
        "meta_element_set_no": 999,
        "meta_rev_at_epoch": 89146,
        "meta_bstar": 0.0016258821,
        "meta_mean_motion_dot": 0.00025919,
        "meta_mean_motion_ddot": 0,
        "tle_line1": "1 34383U 93036PY  25348.90030870  .00025919  00000+0  16259-2 0  9991",
        "tle_line2": "2 34383  74.0219 293.2441 0002646  45.2014  10.7439 15.09216581891465"
      },
      "geometry": {
        "type": "Point",
        "coordinates": [
          131.69663911766798,
          -50.07706790721337
        ]
      }
    },
    {
      "type": "Feature",
      "properties": {
        "norad_id": 34387,
        "name": "COSMOS 2251 DEB",
        "group": "cosmos-2251-debris",
        "lat": -21.324606594381716,
        "lon": 32.87948640683919,
        "alt_km": 755.8322297739305,
        "timestamp": "2025-12-15T15:53:20.242446+00:00",
        "meta_object_name": "COSMOS 2251 DEB",
        "meta_object_id": "1993-036QC",
        "meta_epoch": "2025-12-14T15:56:00.127968",
        "meta_mean_motion": 14.43824935,
        "meta_eccentricity": 0.00388098,
        "meta_inclination": 74.0394,
        "meta_ra_of_asc_node": 208.3196,
        "meta_arg_of_pericenter": 304.8884,
        "meta_mean_anomaly": 111.6099,
        "meta_ephemeris_type": 0,
        "meta_classification_type": "U",
        "meta_norad_cat_id": 34387,
        "meta_element_set_no": 999,
        "meta_rev_at_epoch": 88209,
        "meta_bstar": 0.00034168407,
        "meta_mean_motion_dot": 1.147e-05,
        "meta_mean_motion_ddot": 0,
        "tle_line1": "1 34387U 93036QC  25348.66389037  .00001147  00000+0  34168-3 0  9997",
        "tle_line2": "2 34387  74.0394 208.3196 0038809 304.8884 111.6099 14.43824935882093"
      },
      "geometry": {
        "type": "Point",
        "coordinates": [
          32.87948640683919,
          -21.324606594381716
        ]
      }
    },
    {
      "type": "Feature",
      "properties": {
        "norad_id": 34388,
        "name": "COSMOS 2251 DEB",
        "group": "cosmos-2251-debris",
        "lat": -59.30074594771495,
        "lon": 66.44183436964643,
        "alt_km": 725.2385995012419,
        "timestamp": "2025-12-15T15:53:20.242457+00:00",
        "meta_object_name": "COSMOS 2251 DEB",
        "meta_object_id": "1993-036QD",
        "meta_epoch": "2025-12-14T22:17:50.585280",
        "meta_mean_motion": 14.49378414,
        "meta_eccentricity": 0.00139816,
        "meta_inclination": 74.0391,
        "meta_ra_of_asc_node": 218.9986,
        "meta_arg_of_pericenter": 267.0615,
        "meta_mean_anomaly": 113.3982,
        "meta_ephemeris_type": 0,
        "meta_classification_type": "U",
        "meta_norad_cat_id": 34388,
        "meta_element_set_no": 999,
        "meta_rev_at_epoch": 88187,
        "meta_bstar": 0.00053048064,
        "meta_mean_motion_dot": 2.003e-05,
        "meta_mean_motion_ddot": 0,
        "tle_line1": "1 34388U 93036QD  25348.92905770  .00002003  00000+0  53048-3 0  9995",
        "tle_line2": "2 34388  74.0391 218.9986 0013981 267.0615 113.3982 14.49378414881878"
      },
      "geometry": {
        "type": "Point",
        "coordinates": [
          66.44183436964643,
          -59.30074594771495
        ]
      }
    }
  ]
}